IRIDIUM 136             
1 42962U 17061H   24041.03099785  .00000447  00000+0  15245-3 0  9994
2 42962  86.3975  23.8601 0002125  80.2503 279.8933 14.34220140331831
